GSAT0101 (GALILEO-PFM)  
1 37846U 11060A   24255.36462662 -.00000082  00000+0  00000+0 0  9998
2 37846  57.1268 359.2065 0000809  73.8529 286.1815  1.70475845 80145
GSAT0102 (GALILEO-FM2)  
1 37847U 11060B   24254.66872722 -.00000083  00000+0  00000+0 0  9994
2 37847  57.1278 359.2253 0001741 310.7991  27.6702  1.70475295 80252
GSAT0103 (GALILEO-FM3)  
1 38857U 12055A   24261.85659521  .00000043  00000+0  00000+0 0  9995
2 38857  55.4453 119.0573 0002212 274.7343  85.3533  1.70473637 74143
GSAT0201 (GALILEO 5)    
1 40128U 14050A   24262.87189568 -.00000037  00000+0  00000+0 0  9992
2 40128  49.5628 299.2933 1613523 154.9237 213.8861  1.85519368 66513
GSAT0202 (GALILEO 6)    
1 40129U 14050B   24263.12983964 -.00000037  00000+0  00000+0 0  9994
2 40129  49.5790 298.3610 1612548 155.7306 212.8146  1.85520109 68655
GSAT0203 (GALILEO 7)    
1 40544U 15017A   24263.35584236 -.00000095  00000+0  00000+0 0  9997
2 40544  56.9208 358.9115 0004288 240.2936 119.6947  1.70476103 59021
GSAT0204 (GALILEO 8)    
1 40545U 15017B   24257.74443920 -.00000083  00000+0  00000+0 0  9995
2 40545  56.9278 359.0800 0004297 223.8405 136.1498  1.70475599 21314
GSAT0205 (GALILEO 9)    
1 40889U 15045A   24262.20516633  .00000024  00000+0  00000+0 0  9990
2 40889  55.1805 239.1990 0003599  10.7032 349.2671  1.70473075 56150
GSAT0206 (GALILEO 10)   
1 40890U 15045B   24260.66607277  .00000034  00000+0  00000+0 0  9996
2 40890  55.1804 239.2369 0002091 337.7414  22.2214  1.70473144 56152
GSAT0209 (GALILEO 12)   
1 41174U 15079A   24262.00928484  .00000042  00000+0  00000+0 0  9994
2 41174  55.4645 118.7633 0002709 352.3346   7.7740  1.70473950 53910
GSAT0208 (GALILEO 11)   
1 41175U 15079B   24261.05592795  .00000043  00000+0  00000+0 0  9992
2 41175  55.4624 118.7872 0002341 355.2678   4.8429  1.70473847 54317
GSAT0211 (GALILEO 14)   
1 41549U 16030A   24262.35151895  .00000024  00000+0  00000+0 0  9990
2 41549  55.3281 239.2116 0003480 317.2014  42.7336  1.70473185 51812
GSAT0207 (GALILEO 15)   
1 41859U 16069A   24261.71626777  .00000042  00000+0  00000+0 0  9991
2 41859  55.1300 118.7504 0002433 326.4220  33.6755  1.70473906 48536
GSAT0212 (GALILEO 16)   
1 41860U 16069B   24260.98387163  .00000042  00000+0  00000+0 0  9994
2 41860  55.1270 118.7668 0002501  16.2676 343.8531  1.70474114 48776
GSAT0213 (GALILEO 17)   
1 41861U 16069C   24262.52546695  .00000040  00000+0  00000+0 0  9992
2 41861  55.1303 118.7308 0002114 286.8106  73.2773  1.70474407 48797
GSAT0214 (GALILEO 18)   
1 41862U 16069D   24262.08420162  .00000041  00000+0  00000+0 0  9995
2 41862  55.1283 118.7365 0001250 299.7971  60.3027  1.70474013 48782
GSAT0215 (GALILEO 19)   
1 43055U 17079A   24263.15991951  .00000022  00000+0  00000+0 0  9990
2 43055  55.3049 239.0099 0003248 270.9399  88.9826  1.70473849 42148
GSAT0216 (GALILEO 20)   
1 43056U 17079B   24261.10522731  .00000031  00000+0  00000+0 0  9990
2 43056  55.3060 239.0663 0004717 277.3082  82.6068  1.70474024 42124
GSAT0217 (GALILEO 21)   
1 43057U 17079C   24263.08546904  .00000022  00000+0  00000+0 0  9998
2 43057  55.3033 239.0104 0004022 290.0663  69.8503  1.70473937 42146
GSAT0218 (GALILEO 22)   
1 43058U 17079D   24263.30552874  .00000022  00000+0  00000+0 0  9997
2 43058  55.3039 239.0019 0005156 274.5682  85.3324  1.70473912 42142
GSAT0221 (GALILEO 25)   
1 43564U 18060A   24263.20678009 -.00000094  00000+0  00000+0 0  9998
2 43564  57.3011 358.9397 0004321 260.8719  99.1100  1.70476022 38334
GSAT0222 (GALILEO 26)   
1 43565U 18060B   24253.45349487 -.00000085  00000+0  00000+0 0  9990
2 43565  57.3056 359.2044 0003995 223.2514 136.7426  1.70476073 38200
GSAT0219 (GALILEO 23)   
1 43566U 18060C   24256.60815980 -.00000082  00000+0  00000+0 0  9994
2 43566  57.3043 359.1213 0002700 259.8147 100.1798  1.70476234 38233
GSAT0220 (GALILEO 24)   
1 43567U 18060D   24263.28128190 -.00000094  00000+0  00000+0 0  9990
2 43567  57.3037 358.9417 0003422 258.5290 101.4634  1.70475624 38322
GSAT0223 (GALILEO 27)   
1 49809U 21116A   24256.71034588 -.00000082  00000+0  00000+0 0  9995
2 49809  57.2947 359.0132 0003510 196.6544 181.1021  1.70476198 17233
GSAT0224 (GALILEO 28)   
1 49810U 21116B   24262.31457590 -.00000091  00000+0  00000+0 0  9992
2 49810  57.2950 358.8602 0003050 196.1459 133.5696  1.70475846 17347
GSAT0225 (GALILEO 29)   
1 59598U 24079A   24262.67632737  .00000038  00000+0  00000+0 0  9994
2 59598  54.7459 118.8925 0001970 165.8670  16.6631  1.70474095  2468
GSAT0227 (GALILEO 30)   
1 59600U 24079C   24259.04291560  .00000034  00000+0  00000+0 0  9996
2 59600  54.7393 118.9949 0003428 106.2299 253.9136  1.70474195  2458
